{
  "type": "FeatureCollection",
  "features": [
    {
      "type": "Feature",
      "geometry": {
        "type": "Point",
        "coordinates": [
          132.4537985,
          34.3976019
        ]
      },
      "properties": {
        "tree_id": "hiroshima_n03a1_01",
        "official_id": "N03a1-01",
        "name_ja": "シダレヤナギ",
        "species_scientific": "Salix babylonica",
        "tree_count": 1,
        "site_name": "旧広島市青少年センター西側・本川左岸土手",
        "address": "広島市中区基町14",
        "official_hypocenter_distance_m": 370,
        "moved": false,
        "current_status": "現存（公式登録）",
        "historical_damage": "被爆により幹が折れ、根元から生じた新芽が成長した",
        "evidence_level": "回復過程は強い・初期生存理由は不明",
        "evidence_assessment": "根元の生存組織からの再萌芽が現在の樹体形成に寄与したことは公式記録で支持される",
        "condition_evidence_date": "2025-02-16",
        "source_url": "https://www.city.hiroshima.lg.jp/atomicbomb-peace/fukko/1021101/1026920/1026922/1021004.html",
        "calculated_distance_m": 330.5,
        "bearing_from_hypocenter_deg": 345.1,
        "city": "Hiroshima",
        "analysis_crs": "EPSG:6671",
        "location_precision": "site",
        "elevation_m": 3.39,
        "slope_deg": 0.88,
        "aspect_deg": 138.4,
        "local_relief_5px_m": 0.22,
        "dem_pixel_size_m": 3.94,
        "building_cover_50m_pct": 33.45,
        "green_cover_50m_pct": 81.51,
        "road_length_50m_m": 507.4,
        "building_cover_100m_pct": 17.52,
        "green_cover_100m_pct": 63.08,
        "road_length_100m_m": 1900.5,
        "building_cover_250m_pct": 20.07,
        "green_cover_250m_pct": 46.16,
        "road_length_250m_m": 11622.7,
        "nearest_mapped_water_m": 62.6,
        "exposure_site_name": null,
        "mechanism_category": "regeneration",
        "damage_factor": "爆風等で幹が折れた",
        "retention_pathway": "焼け残った根元の生存組織から新芽が出て、現在の樹体へ成長した",
        "uncertainty_statement": "なぜ根元の組織が被爆直後に生き残れたかは、公開資料だけでは特定できない",
        "mechanism_label": "再萌芽・樹勢回復",
        "mechanism_color": "#17705a",
        "survival_state": "living",
        "survival_state_label": "現存・回復",
        "survival_state_color": "#16705a"
      }
    },
    {
      "type": "Feature",
      "geometry": {
        "type": "Point",
        "coordinates": [
          132.4563395,
          34.3903503
        ]
      },
      "properties": {
        "tree_id": "hiroshima_s04a4_01_03",
        "official_id": "S04a4-01～03",
        "name_ja": "クスノキ",
        "species_scientific": "Cinnamomum camphora",
        "tree_count": 3,
        "site_name": "白神社",
        "address": "広島市中区中町7-24",
        "official_hypocenter_distance_m": 490,
        "moved": false,
        "current_status": "現存（公式登録）",
        "historical_damage": "地上部が焼失し、焼け残った根元から新芽が成長した",
        "evidence_level": "回復過程は強い・初期生存理由は不明",
        "evidence_assessment": "地上部焼失後の根元からの再萌芽が回復過程として公式記録に明記される",
        "condition_evidence_date": "2025-02-16",
        "source_url": "https://www.city.hiroshima.lg.jp/atomicbomb-peace/fukko/1021101/1026920/1026922/1021007.html",
        "calculated_distance_m": 507.3,
        "bearing_from_hypocenter_deg": 163.0,
        "city": "Hiroshima",
        "analysis_crs": "EPSG:6671",
        "location_precision": "site",
        "elevation_m": 2.72,
        "slope_deg": 0.49,
        "aspect_deg": 206.6,
        "local_relief_5px_m": 0.34,
        "dem_pixel_size_m": 3.94,
        "building_cover_50m_pct": 34.75,
        "green_cover_50m_pct": 2.02,
        "road_length_50m_m": 497.6,
        "building_cover_100m_pct": 37.56,
        "green_cover_100m_pct": 1.11,
        "road_length_100m_m": 2103.9,
        "building_cover_250m_pct": 33.56,
        "green_cover_250m_pct": 0.18,
        "road_length_250m_m": 12698.6,
        "nearest_mapped_water_m": 222.6,
        "exposure_site_name": null,
        "mechanism_category": "regeneration",
        "damage_factor": "熱線・火災で地上部が焼失した",
        "retention_pathway": "焼け残った根元から再萌芽し、樹体を再形成した",
        "uncertainty_statement": "根元が残った物理的条件や樹種特性の寄与は、比較資料がなく判定できない",
        "mechanism_label": "再萌芽・樹勢回復",
        "mechanism_color": "#17705a",
        "survival_state": "living",
        "survival_state_label": "現存・回復",
        "survival_state_color": "#16705a"
      }
    },
    {
      "type": "Feature",
      "geometry": {
        "type": "Point",
        "coordinates": [
          132.460135,
          34.3992435
        ]
      },
      "properties": {
        "tree_id": "hiroshima_n07a7_01",
        "official_id": "N07a7-01",
        "name_ja": "ユーカリ",
        "species_scientific": "Eucalyptus globulus subsp. bicostata",
        "tree_count": 1,
        "site_name": "広島城二の丸跡",
        "address": "広島市中区基町21",
        "official_hypocenter_distance_m": 740,
        "moved": false,
        "current_status": "現存・再萌芽（公式解説）",
        "historical_damage": "被爆で黒焦げになり、1971年の台風で幹が途中から折れた後に再萌芽した",
        "evidence_level": "損傷・回復過程は強い",
        "evidence_assessment": "被爆による黒焦げと1971年台風による幹折れを分離でき、再萌芽による回復が記録される",
        "condition_evidence_date": "2025-02-24",
        "source_url": "https://www.city.hiroshima.lg.jp/atomicbomb-peace/fukko/1021101/1026920/1026922/1021014.html",
        "calculated_distance_m": 706.6,
        "bearing_from_hypocenter_deg": 44.8,
        "city": "Hiroshima",
        "analysis_crs": "EPSG:6671",
        "location_precision": "site",
        "elevation_m": 2.73,
        "slope_deg": 2.81,
        "aspect_deg": 280.4,
        "local_relief_5px_m": 0.78,
        "dem_pixel_size_m": 3.94,
        "building_cover_50m_pct": 0.13,
        "green_cover_50m_pct": 64.42,
        "road_length_50m_m": 551.5,
        "building_cover_100m_pct": 1.68,
        "green_cover_100m_pct": 47.22,
        "road_length_100m_m": 1799.4,
        "building_cover_250m_pct": 15.37,
        "green_cover_250m_pct": 42.61,
        "road_length_250m_m": 10052.6,
        "nearest_mapped_water_m": 519.5,
        "exposure_site_name": null,
        "mechanism_category": "regeneration",
        "damage_factor": "被爆で黒焦げになり、後年の台風で幹が折れた",
        "retention_pathway": "幹折れ後に再萌芽し、被爆損傷とは別の二次被害からも回復した",
        "uncertainty_statement": "被爆直後の生存理由と、被爆損傷が後年の幹折れへ与えた影響は確定できない",
        "mechanism_label": "再萌芽・樹勢回復",
        "mechanism_color": "#17705a",
        "survival_state": "living",
        "survival_state_label": "現存・回復",
        "survival_state_color": "#16705a"
      }
    },
    {
      "type": "Feature",
      "geometry": {
        "type": "Point",
        "coordinates": [
          132.4674494,
          34.4003377
        ]
      },
      "properties": {
        "tree_id": "hiroshima_e13a25_01_03",
        "official_id": "E13a25-01～03",
        "name_ja": "イチョウ・ムクノキ・クロマツ",
        "species_scientific": "Ginkgo biloba; Aphananthe aspera; Pinus thunbergii",
        "tree_count": 3,
        "site_name": "縮景園",
        "address": "広島市中区上幟町2-11",
        "official_hypocenter_distance_m": 1370,
        "moved": false,
        "current_status": "現存（公式登録）",
        "historical_damage": "公式一覧では個別損傷記述を確認できず",
        "evidence_level": "不十分",
        "evidence_assessment": "現存と位置は確認できるが、公開一覧だけでは残存・損傷過程を評価できない",
        "condition_evidence_date": "2025-05-21",
        "source_url": "https://www.city.hiroshima.lg.jp/atomicbomb-peace/fukko/1021101/1026920/1026922/1003421.html",
        "calculated_distance_m": 1325.8,
        "bearing_from_hypocenter_deg": 62.0,
        "city": "Hiroshima",
        "analysis_crs": "EPSG:6671",
        "location_precision": "site",
        "elevation_m": 4.83,
        "slope_deg": 0.34,
        "aspect_deg": 229.4,
        "local_relief_5px_m": 0.1,
        "dem_pixel_size_m": 7.88,
        "building_cover_50m_pct": 4.13,
        "green_cover_50m_pct": 100.0,
        "road_length_50m_m": 319.5,
        "building_cover_100m_pct": 4.82,
        "green_cover_100m_pct": 89.42,
        "road_length_100m_m": 1435.4,
        "building_cover_250m_pct": 17.86,
        "green_cover_250m_pct": 21.58,
        "road_length_250m_m": 7213.4,
        "nearest_mapped_water_m": 63.0,
        "exposure_site_name": null,
        "mechanism_category": "insufficient",
        "damage_factor": "個別の損傷記述を確認できない",
        "retention_pathway": "現存登録は確認できるが、現在まで残った過程を公開一覧から復元できない",
        "uncertainty_statement": "損傷、再生、手入れ、敷地保護の各要因について追加の個体資料が必要",
        "mechanism_label": "残存過程の証拠不足",
        "mechanism_color": "#706e68",
        "survival_state": "living",
        "survival_state_label": "現存・回復",
        "survival_state_color": "#16705a"
      }
    },
    {
      "type": "Feature",
      "geometry": {
        "type": "Point",
        "coordinates": [
          132.4704327,
          34.4042894
        ]
      },
      "properties": {
        "tree_id": "hiroshima_e17a37_01_03",
        "official_id": "E17a37-01～03",
        "name_ja": "イチョウ・クロマツ・ソテツ",
        "species_scientific": "Ginkgo biloba; Pinus thunbergii; Cycas revoluta",
        "tree_count": 3,
        "site_name": "明星院",
        "address": "広島市東区二葉の里二丁目6-25",
        "official_hypocenter_distance_m": 1780,
        "moved": false,
        "current_status": "現存（公式登録）",
        "historical_damage": "公式一覧では個別損傷記述を確認できず",
        "evidence_level": "不十分",
        "evidence_assessment": "現存と位置は確認できるが、公開一覧だけでは残存・損傷過程を評価できない",
        "condition_evidence_date": "2025-05-21",
        "source_url": "https://www.city.hiroshima.lg.jp/atomicbomb-peace/fukko/1021101/1026920/1026922/1003421.html",
        "calculated_distance_m": 1792.5,
        "bearing_from_hypocenter_deg": 53.7,
        "city": "Hiroshima",
        "analysis_crs": "EPSG:6671",
        "location_precision": "site",
        "elevation_m": 3.49,
        "slope_deg": 1.13,
        "aspect_deg": 225.0,
        "local_relief_5px_m": 0.35,
        "dem_pixel_size_m": 3.94,
        "building_cover_50m_pct": 26.67,
        "green_cover_50m_pct": 0.75,
        "road_length_50m_m": 272.0,
        "building_cover_100m_pct": 20.57,
        "green_cover_100m_pct": 12.03,
        "road_length_100m_m": 961.3,
        "building_cover_250m_pct": 15.22,
        "green_cover_250m_pct": 13.34,
        "road_length_250m_m": 6909.1,
        "nearest_mapped_water_m": 163.0,
        "exposure_site_name": null,
        "mechanism_category": "insufficient",
        "damage_factor": "個別の損傷記述を確認できない",
        "retention_pathway": "現存登録は確認できるが、現在まで残った過程を公開一覧から復元できない",
        "uncertainty_statement": "損傷、再生、手入れ、敷地保護の各要因について追加の個体資料が必要",
        "mechanism_label": "残存過程の証拠不足",
        "mechanism_color": "#706e68",
        "survival_state": "living",
        "survival_state_label": "現存・回復",
        "survival_state_color": "#16705a"
      }
    }
  ]
}