{
  "type": "FeatureCollection",
  "features": [
    {
      "type": "Feature",
      "geometry": {
        "type": "Point",
        "coordinates": [
          129.8684284,
          32.76734
        ]
      },
      "properties": {
        "tree_id": "nagasaki_sanno_okusunoki",
        "official_id": "A_rank_sanno_2",
        "name_ja": "山王神社の大クス",
        "species_scientific": "Cinnamomum camphora",
        "tree_count": 2,
        "site_name": "山王神社",
        "address": "長崎市坂本2丁目6-56",
        "official_hypocenter_distance_m": 800,
        "moved": false,
        "current_status": "現存・樹勢回復（公式文化財解説）",
        "historical_damage": "主幹上部が折れ、熱線で幹肌が焼け、一時は全落葉した",
        "evidence_level": "損傷・回復過程は強い",
        "evidence_assessment": "主幹折損・幹肌焼損・全落葉からの樹勢回復が公式文化財解説に記録される",
        "condition_evidence_date": "2024-11-11",
        "source_url": "https://www.city.nagasaki.lg.jp/page/1099.html",
        "calculated_distance_m": 843.5,
        "bearing_from_hypocenter_deg": 145.5,
        "city": "Nagasaki",
        "analysis_crs": "EPSG:6669",
        "location_precision": "site",
        "elevation_m": 21.48,
        "slope_deg": 14.39,
        "aspect_deg": 221.3,
        "local_relief_5px_m": 2.91,
        "dem_pixel_size_m": 4.02,
        "building_cover_50m_pct": 29.52,
        "green_cover_50m_pct": 30.81,
        "road_length_50m_m": 216.0,
        "building_cover_100m_pct": 29.39,
        "green_cover_100m_pct": 8.17,
        "road_length_100m_m": 824.3,
        "building_cover_250m_pct": 27.48,
        "green_cover_250m_pct": 1.31,
        "road_length_250m_m": 4647.6,
        "nearest_mapped_water_m": 47.9,
        "exposure_site_name": null,
        "mechanism_category": "regeneration",
        "damage_factor": "爆風で主幹上部が折れ、熱線で幹肌が焼け、全落葉した",
        "retention_pathway": "枝葉を再生して樹勢を回復し、神社境内で保存・継承されている",
        "uncertainty_statement": "初期生存に樹体の大きさ、地形、周辺遮蔽がどの程度寄与したかは比較検証できない",
        "mechanism_label": "再萌芽・樹勢回復",
        "mechanism_color": "#17705a",
        "survival_state": "living",
        "survival_state_label": "現存・回復",
        "survival_state_color": "#16705a"
      }
    },
    {
      "type": "Feature",
      "geometry": {
        "type": "Point",
        "coordinates": [
          129.857598,
          32.773583
        ]
      },
      "properties": {
        "tree_id": "nagasaki_shiroyama_futamata",
        "official_id": "B_rank_shiroyama",
        "name_ja": "城山国民学校二股クス",
        "species_scientific": "Cinnamomum camphora",
        "tree_count": 1,
        "site_name": "長崎市立城山小学校",
        "address": "長崎市城山町23-1",
        "official_hypocenter_distance_m": 500,
        "moved": false,
        "current_status": "2017年資料の保存対象（現況は要再確認）",
        "historical_damage": "被爆樹木として保存対象、公開資料から損傷細目を機械的に確定できず",
        "evidence_level": "不十分",
        "evidence_assessment": "保存対象であることは確認できるが、公開資料の表だけでは個体の損傷・樹勢を確実に対応付けられない",
        "condition_evidence_date": "2017-11",
        "source_url": "https://www.city.nagasaki.lg.jp/uploaded/attachment/12512.pdf",
        "calculated_distance_m": 537.4,
        "bearing_from_hypocenter_deg": 269.7,
        "city": "Nagasaki",
        "analysis_crs": "EPSG:6669",
        "location_precision": "site",
        "elevation_m": 18.06,
        "slope_deg": 0.59,
        "aspect_deg": 76.0,
        "local_relief_5px_m": 0.34,
        "dem_pixel_size_m": 4.02,
        "building_cover_50m_pct": 30.2,
        "green_cover_50m_pct": 0.0,
        "road_length_50m_m": 0.0,
        "building_cover_100m_pct": 20.6,
        "green_cover_100m_pct": 3.61,
        "road_length_100m_m": 408.9,
        "building_cover_250m_pct": 27.07,
        "green_cover_250m_pct": 1.54,
        "road_length_250m_m": 6415.3,
        "nearest_mapped_water_m": 110.6,
        "exposure_site_name": null,
        "mechanism_category": "insufficient",
        "damage_factor": "被爆樹木であること以外の損傷細目を確定できない",
        "retention_pathway": "学校敷地の保存対象として記録されている",
        "uncertainty_statement": "個体の損傷、再生、現況を対応付ける原資料と現地確認が必要",
        "mechanism_label": "残存過程の証拠不足",
        "mechanism_color": "#706e68",
        "survival_state": "unverified",
        "survival_state_label": "現況要確認",
        "survival_state_color": "#c7892f"
      }
    },
    {
      "type": "Feature",
      "geometry": {
        "type": "Point",
        "coordinates": [
          129.8643791,
          32.7727742
        ]
      },
      "properties": {
        "tree_id": "nagasaki_museum_azalea_pine",
        "official_id": "A_rank_museum_2",
        "name_ja": "淀川ツツジ・五葉松",
        "species_scientific": "Rhododendron sp.; Pinus parviflora",
        "tree_count": 2,
        "site_name": "長崎原爆資料館",
        "address": "長崎市平野町7-8",
        "official_hypocenter_distance_m": 1100,
        "moved": true,
        "current_status": "現存・長崎原爆資料館へ移植（公式広報）",
        "historical_damage": "倒壊した住宅の庭で生存したが、公開ページに損傷細目なし",
        "evidence_level": "現在までの保存過程は強い・初期生存理由は不明",
        "evidence_assessment": "寄贈と移植は現在まで残った要因として記録できるが、被爆直後の生存機構は資料から特定できない",
        "condition_evidence_date": "2025-03-21",
        "source_url": "https://www.city.nagasaki.lg.jp/kiji/koho202504/51851.html",
        "calculated_distance_m": 135.0,
        "bearing_from_hypocenter_deg": 133.4,
        "city": "Nagasaki",
        "analysis_crs": "EPSG:6669",
        "location_precision": "site",
        "elevation_m": 22.49,
        "slope_deg": 7.88,
        "aspect_deg": 137.6,
        "local_relief_5px_m": 2.53,
        "dem_pixel_size_m": 4.02,
        "building_cover_50m_pct": 29.16,
        "green_cover_50m_pct": 0.0,
        "road_length_50m_m": 388.1,
        "building_cover_100m_pct": 23.78,
        "green_cover_100m_pct": 1.56,
        "road_length_100m_m": 1414.2,
        "building_cover_250m_pct": 24.33,
        "green_cover_250m_pct": 8.65,
        "road_length_250m_m": 7893.2,
        "nearest_mapped_water_m": 82.5,
        "exposure_site_name": "油木町の個人宅（被爆当時は西郷）",
        "mechanism_category": "stewardship",
        "damage_factor": "住宅が倒壊した庭で被爆したが、樹木の損傷細目は記録されていない",
        "retention_pathway": "個人宅で育て続けられ、寄贈後に原爆資料館へ移植されたことで現在地に継承された",
        "uncertainty_statement": "被爆直後に生き残った生理的・物理的理由は公開資料から特定できない",
        "mechanism_label": "人の手による移植・継承",
        "mechanism_color": "#75559a",
        "survival_state": "transplanted",
        "survival_state_label": "移植して現存",
        "survival_state_color": "#73539a"
      }
    },
    {
      "type": "Feature",
      "geometry": {
        "type": "Point",
        "coordinates": [
          129.8597088,
          32.7579642
        ]
      },
      "properties": {
        "tree_id": "nagasaki_fuchi_shrine",
        "official_id": "B_rank_fuchi_shrine",
        "name_ja": "淵神社のクスノキ",
        "species_scientific": "Cinnamomum camphora",
        "tree_count": 3,
        "site_name": "淵神社",
        "address": "長崎市淵町8-1",
        "official_hypocenter_distance_m": 1700,
        "moved": false,
        "current_status": "2017年資料の保存対象（現況は要再確認）",
        "historical_damage": "被爆樹木として保存対象、公開資料から損傷細目を機械的に確定できず",
        "evidence_level": "不十分",
        "evidence_assessment": "保存対象と地点は確認できるが、損傷・樹勢の個体対応は追加の原資料確認が必要である",
        "condition_evidence_date": "2017-11",
        "source_url": "https://www.city.nagasaki.lg.jp/uploaded/attachment/12512.pdf",
        "calculated_distance_m": 1768.2,
        "bearing_from_hypocenter_deg": 191.1,
        "city": "Nagasaki",
        "analysis_crs": "EPSG:6669",
        "location_precision": "site",
        "elevation_m": 16.07,
        "slope_deg": 18.64,
        "aspect_deg": 150.1,
        "local_relief_5px_m": 6.05,
        "dem_pixel_size_m": 4.02,
        "building_cover_50m_pct": 23.98,
        "green_cover_50m_pct": 5.99,
        "road_length_50m_m": 71.9,
        "building_cover_100m_pct": 19.9,
        "green_cover_100m_pct": 14.88,
        "road_length_100m_m": 545.3,
        "building_cover_250m_pct": 18.11,
        "green_cover_250m_pct": 18.64,
        "road_length_250m_m": 3521.2,
        "nearest_mapped_water_m": 71.0,
        "exposure_site_name": null,
        "mechanism_category": "insufficient",
        "damage_factor": "被爆樹木であること以外の損傷細目を確定できない",
        "retention_pathway": "神社敷地の保存対象として記録されている",
        "uncertainty_statement": "3本それぞれの損傷、樹勢、管理履歴を対応付ける資料が必要",
        "mechanism_label": "残存過程の証拠不足",
        "mechanism_color": "#706e68",
        "survival_state": "unverified",
        "survival_state_label": "現況要確認",
        "survival_state_color": "#c7892f"
      }
    },
    {
      "type": "Feature",
      "geometry": {
        "type": "Point",
        "coordinates": [
          129.8607974,
          32.7562987
        ]
      },
      "properties": {
        "tree_id": "nagasaki_inasa_school",
        "official_id": "B_rank_inasa_school",
        "name_ja": "稲佐国民学校クスノキ",
        "species_scientific": "Cinnamomum camphora",
        "tree_count": 1,
        "site_name": "長崎市立稲佐小学校",
        "address": "長崎市稲佐町11-1",
        "official_hypocenter_distance_m": 2000,
        "moved": false,
        "current_status": "2017年に枯死確認・現地保存処理対象",
        "historical_damage": "被爆樹木として保存され、枯死後も平和学習教材として現地保存方針",
        "evidence_level": "枯死・資料保存過程は強い",
        "evidence_assessment": "生物学的には枯死したが、薬剤・支柱等で被爆遺構として残す方針が公式資料に明記される",
        "condition_evidence_date": "2017-11",
        "source_url": "https://www.city.nagasaki.lg.jp/uploaded/attachment/12512.pdf",
        "calculated_distance_m": 1934.6,
        "bearing_from_hypocenter_deg": 187.1,
        "city": "Nagasaki",
        "analysis_crs": "EPSG:6669",
        "location_precision": "site",
        "elevation_m": 24.55,
        "slope_deg": 0.91,
        "aspect_deg": 218.7,
        "local_relief_5px_m": 0.41,
        "dem_pixel_size_m": 4.02,
        "building_cover_50m_pct": 36.6,
        "green_cover_50m_pct": 0.0,
        "road_length_50m_m": 60.9,
        "building_cover_100m_pct": 36.27,
        "green_cover_100m_pct": 0.44,
        "road_length_100m_m": 816.5,
        "building_cover_250m_pct": 30.4,
        "green_cover_250m_pct": 1.48,
        "road_length_250m_m": 5704.6,
        "nearest_mapped_water_m": 143.2,
        "exposure_site_name": null,
        "mechanism_category": "material_preservation",
        "damage_factor": "被爆後に生存したが、2017年に枯死が確認された",
        "retention_pathway": "枯死後も薬剤処理と支柱で現地に残し、平和学習教材として物質的に保存する方針が採られた",
        "uncertainty_statement": "生木として長期間生存できた理由と、最終的な枯死要因は公開資料だけでは判定できない",
        "mechanism_label": "枯死後の資料保存",
        "mechanism_color": "#9b4e3f",
        "survival_state": "preserved_dead",
        "survival_state_label": "枯死後保存",
        "survival_state_color": "#984b3d"
      }
    }
  ]
}